XRISM                   
1 57800U 23137A   23295.48378056  .00004299  00000+0  34592-3 0  9997
2 57800  31.0027  88.5028 0010363   6.7244 353.3529 14.98314024  6824
